STARLINK-37649          
1 69202U 26114W   26156.25005787 -.01245256  00000+0 -67947-2 0  9998
2 69202  53.1588 261.9039 0000667  75.2504  14.3404 15.81899932  2893
STARLINK-37604          
1 69203U 26114X   26156.25005787 -.01533377  00000+0 -83282-2 0  9993
2 69203  53.1589 261.8951 0000766  94.5129 359.1927 15.82127473  2899
STARLINK-37669          
1 69204U 26114Y   26156.25005787 -.01638932  00000+0 -89172-2 0  9991
2 69204  53.1588 261.8861 0000948  96.6799   1.1443 15.82292753  2898
STARLINK-37691          
1 69205U 26114Z   26156.25005787 -.01805612  00000+0 -95504-2 0  9999
2 69205  53.1588 261.8607 0000954  90.3379  19.7848 15.82686645  2890
STARLINK-37671          
1 69206U 26114AA  26156.25005787 -.01715471  00000+0 -92878-2 0  9994
2 69206  53.1588 261.8691 0000952  81.6909  24.3431 15.82548060  2892
STARLINK-37647          
1 69207U 26114AB  26156.25005787 -.01788799  00000+0 -95596-2 0  9998
2 69207  53.1584 261.8774 0000765  79.5020  22.4607 15.82444292  2899
STARLINK-37562          
1 69208U 26114AC  26156.25005787 -.01791002  00000+0 -94079-2 0  9995
2 69208  53.1587 261.8521 0001230  60.4814  53.7243 15.82805303  2898
STARLINK-37682          
1 69209U 26114AD  26156.25005787 -.01677595  00000+0 -89001-2 0  9995
2 69209  53.1588 261.8435 0000821  86.1001  32.1583 15.82900877  2892
STARLINK-37402          
1 69210U 26114AE  26156.25005787 -.01724904  00000+0 -91259-2 0  9992
2 69210  53.1585 261.8353 0001066  62.2554  59.9956 15.83049024  2890
STARLINK-37613          
1 69211U 26115A   26156.25005787  .00012759  00000+0  67270-4 0  9997
2 69211  97.2838 173.0453 0001114  91.9805 154.8568 15.80811157  2770
STARLINK-37713          
1 69212U 26115B   26156.25005787 -.00034103  00000+0 -17779-3 0  9995
2 69212  97.2830 173.0465 0001408  83.8501 164.6219 15.80840492  2771
STARLINK-37716          
1 69213U 26115C   26156.25005787 -.00000568  00000+0 -22225-5 0  9998
2 69213  97.2836 173.0441 0001384  90.1554 154.0396 15.80834520  2778
STARLINK-37620          
1 69214U 26115D   26156.25005787 -.00055332  00000+0 -28956-3 0  9993
2 69214  97.2831 173.0464 0001005  93.7444 158.9974 15.80847247  2771
STARLINK-37700          
1 69215U 26115E   26156.25005787 -.02458308  00000+0 -20512-1 0  9994
2 69215  97.2847 173.0417 0001610  95.6832 144.0662 15.73691760  2770
STARLINK-37766          
1 69216U 26115F   26156.25005787  .00022759  00000+0  11922-3 0  9995
2 69216  97.2831 173.0513 0001427  96.7906 164.4994 15.80820437  2778
STARLINK-37763          
1 69217U 26115G   26156.25005787 -.00222077  00000+0 -11847-2 0  9998
2 69217  97.2829 173.0528 0001112  75.4011 189.5930 15.80882873  2774
STARLINK-37724          
1 69218U 26115H   26156.25005787 -.00014434  00000+0 -74676-4 0  9996
2 69218  97.2834 173.0544 0001367  93.4455 176.2066 15.80833625  2777
STARLINK-37758          
1 69219U 26115J   26156.25005787 -.00034870  00000+0 -18179-3 0  9998
2 69219  97.2828 173.0630 0001084 115.3527 172.5465 15.80844905  2772
STARLINK-37201          
1 69220U 26115K   26156.25005787 -.00015110  00000+0 -78224-4 0  9994
2 69220  97.2835 173.0600 0001435 104.2681 176.6138 15.80830502  2777
STARLINK-37728          
1 69221U 26115L   26156.25005787 -.00027445  00000+0 -14284-3 0  9994
2 69221  97.2834 173.0654 0001189  98.3330 196.2976 15.80838799  2770
STARLINK-37760          
1 69222U 26115M   26156.25005787  .00031026  00000+0  16213-3 0  9997
2 69222  97.2834 173.0590 0001308  90.2363 188.8004 15.80817191  2772
STARLINK-37759          
1 69223U 26115N   26156.25005787  .00025676  00000+0  13438-3 0  9998
2 69223  97.2828 173.0675 0001057 102.0049 196.7109 15.80817427  2770
STARLINK-37725          
1 69224U 26115P   26156.25005787 -.00026743  00000+0 -13918-3 0  9990
2 69224  97.2833 173.0655 0000982 101.6338 193.8451 15.80834872  2778
STARLINK-37770          
1 69225U 26115Q   26156.25005787 -.00009425  00000+0 -48477-4 0  9998
2 69225  97.2832 173.0640 0001322  96.4196 195.6299 15.80834135  2776
STARLINK-37736          
1 69226U 26115R   26156.25005787 -.00029592  00000+0 -15409-3 0  9994
2 69226  97.2833 173.0658 0000748 107.7562 188.3477 15.80842716  2772
STARLINK-37737          
1 69227U 26115S   26156.25005787 -.00010613  00000+0 -54683-4 0  9997
2 69227  97.2833 173.0707 0001401  95.0475 212.3989 15.80836516  2796
STARLINK-37618          
1 69228U 26115T   26156.25005787  .00008662  00000+0  45906-4 0  9995
2 69228  97.2834 173.0798 0001371  99.7886 228.4193 15.80821354  2778
STARLINK-37679          
1 69229U 26115U   26156.25005787  .00034994  00000+0  18278-3 0  9994
2 69229  97.2832 173.0763 0001145  98.5602 221.2555 15.80806694  2774
STARLINK-37746          
1 69230U 26115V   26156.25005787 -.00021933  00000+0 -11393-3 0  9998
2 69230  97.2832 173.0720 0001070  94.3865 216.6952 15.80839321  2773
STARLINK-37557          
1 69231U 26115W   26156.25005787  .00005263  00000+0  28195-4 0  9994
2 69231  97.2837 173.0801 0001201 104.1745 225.1046 15.80820303  2771
