OBJECT_NAME,OBJECT_ID,EPOCH,MEAN_MOTION,ECCENTRICITY,INCLINATION,RA_OF_ASC_NODE,ARG_OF_PERICENTER,MEAN_ANOMALY,EPHEMERIS_TYPE,CLASSIFICATION_TYPE,NORAD_CAT_ID,ELEMENT_SET_NO,REV_AT_EPOCH,BSTAR,MEAN_MOTION_DOT,MEAN_MOTION_DDOT
STARLINK-37649,2026-114W,2026-06-05T06:00:04.999968,15.81899932,.00006675,53.1588,261.9039,75.2504,14.3404,0,U,69202,999,289,-.67947448E-2,-.1245256E-1,0
STARLINK-37604,2026-114X,2026-06-05T06:00:04.999968,15.82127473,.0000766,53.1589,261.8951,94.5129,359.1927,0,U,69203,999,289,-.83281545E-2,-.1533377E-1,0
STARLINK-37669,2026-114Y,2026-06-05T06:00:04.999968,15.82292753,.00009488,53.1588,261.8861,96.6799,1.1443,0,U,69204,999,289,-.89171966E-2,-.1638932E-1,0
STARLINK-37691,2026-114Z,2026-06-05T06:00:04.999968,15.82686645,.00009542,53.1588,261.8607,90.3379,19.7848,0,U,69205,999,289,-.95504284E-2,-.1805612E-1,0
STARLINK-37671,2026-114AA,2026-06-05T06:00:04.999968,15.82548060,.00009529,53.1588,261.8691,81.6909,24.3431,0,U,69206,999,289,-.92878224E-2,-.1715471E-1,0
STARLINK-37647,2026-114AB,2026-06-05T06:00:04.999968,15.82444292,.00007652,53.1584,261.8774,79.5020,22.4607,0,U,69207,999,289,-.95596106E-2,-.1788799E-1,0
STARLINK-37562,2026-114AC,2026-06-05T06:00:04.999968,15.82805303,.00012301,53.1587,261.8521,60.4814,53.7243,0,U,69208,999,289,-.94078975E-2,-.1791002E-1,0
STARLINK-37682,2026-114AD,2026-06-05T06:00:04.999968,15.82900877,.00008214,53.1588,261.8435,86.1001,32.1583,0,U,69209,999,289,-.89000779E-2,-.1677595E-1,0
STARLINK-37402,2026-114AE,2026-06-05T06:00:04.999968,15.83049024,.00010665,53.1585,261.8353,62.2554,59.9956,0,U,69210,999,289,-.91259103E-2,-.1724904E-1,0
STARLINK-37613,2026-115A,2026-06-05T06:00:04.999968,15.80811157,.00011144,97.2838,173.0453,91.9805,154.8568,0,U,69211,999,277,.67269581E-4,.12759E-3,0
STARLINK-37713,2026-115B,2026-06-05T06:00:04.999968,15.80840492,.00014081,97.2830,173.0465,83.8501,164.6219,0,U,69212,999,277,-.17779137E-3,-.34103E-3,0
STARLINK-37716,2026-115C,2026-06-05T06:00:04.999968,15.80834520,.00013849,97.2836,173.0441,90.1554,154.0396,0,U,69213,999,277,-.2222526E-5,-.568E-5,0
STARLINK-37620,2026-115D,2026-06-05T06:00:04.999968,15.80847247,.00010053,97.2831,173.0464,93.7444,158.9974,0,U,69214,999,277,-.28955527E-3,-.55332E-3,0
STARLINK-37700,2026-115E,2026-06-05T06:00:04.999968,15.73691760,.00016109,97.2847,173.0417,95.6832,144.0662,0,U,69215,999,277,-.20511774E-1,-.2458308E-1,0
STARLINK-37766,2026-115F,2026-06-05T06:00:04.999968,15.80820437,.00014279,97.2831,173.0513,96.7906,164.4994,0,U,69216,999,277,.1192222E-3,.22759E-3,0
STARLINK-37763,2026-115G,2026-06-05T06:00:04.999968,15.80882873,.00011127,97.2829,173.0528,75.4011,189.5930,0,U,69217,999,277,-.1184744E-2,-.222077E-2,0
STARLINK-37724,2026-115H,2026-06-05T06:00:04.999968,15.80833625,.00013676,97.2834,173.0544,93.4455,176.2066,0,U,69218,999,277,-.74675633E-4,-.14434E-3,0
STARLINK-37758,2026-115J,2026-06-05T06:00:04.999968,15.80844905,.00010845,97.2828,173.0630,115.3527,172.5465,0,U,69219,999,277,-.18179159E-3,-.3487E-3,0
STARLINK-37201,2026-115K,2026-06-05T06:00:04.999968,15.80830502,.00014351,97.2835,173.0600,104.2681,176.6138,0,U,69220,999,277,-.78223541E-4,-.1511E-3,0
STARLINK-37728,2026-115L,2026-06-05T06:00:04.999968,15.80838799,.00011894,97.2834,173.0654,98.3330,196.2976,0,U,69221,999,277,-.14284327E-3,-.27445E-3,0
STARLINK-37760,2026-115M,2026-06-05T06:00:04.999968,15.80817191,.00013088,97.2834,173.0590,90.2363,188.8004,0,U,69222,999,277,.16213375E-3,.31026E-3,0
STARLINK-37759,2026-115N,2026-06-05T06:00:04.999968,15.80817427,.00010578,97.2828,173.0675,102.0049,196.7109,0,U,69223,999,277,.13438285E-3,.25676E-3,0
STARLINK-37725,2026-115P,2026-06-05T06:00:04.999968,15.80834872,.00009829,97.2833,173.0655,101.6338,193.8451,0,U,69224,999,277,-.13918428E-3,-.26743E-3,0
STARLINK-37770,2026-115Q,2026-06-05T06:00:04.999968,15.80834135,.00013229,97.2832,173.0640,96.4196,195.6299,0,U,69225,999,277,-.48477485E-4,-.9425E-4,0
STARLINK-37736,2026-115R,2026-06-05T06:00:04.999968,15.80842716,.0000748,97.2833,173.0658,107.7562,188.3477,0,U,69226,999,277,-.15409124E-3,-.29592E-3,0
STARLINK-37737,2026-115S,2026-06-05T06:00:04.999968,15.80836516,.00014019,97.2833,173.0707,95.0475,212.3989,0,U,69227,999,279,-.54682994E-4,-.10613E-3,0
STARLINK-37618,2026-115T,2026-06-05T06:00:04.999968,15.80821354,.00013717,97.2834,173.0798,99.7886,228.4193,0,U,69228,999,277,.45906443E-4,.8662E-4,0
STARLINK-37679,2026-115U,2026-06-05T06:00:04.999968,15.80806694,.00011456,97.2832,173.0763,98.5602,221.2555,0,U,69229,999,277,.18277752E-3,.34994E-3,0
STARLINK-37746,2026-115V,2026-06-05T06:00:04.999968,15.80839321,.00010708,97.2832,173.0720,94.3865,216.6952,0,U,69230,999,277,-.11393476E-3,-.21933E-3,0
STARLINK-37557,2026-115W,2026-06-05T06:00:04.999968,15.80820303,.00012011,97.2837,173.0801,104.1745,225.1046,0,U,69231,999,277,.28195026E-4,.5263E-4,0
